{
    "links": {
        "self": "http://www.neowsapp.com/rest/v1/neo/3760527?api_key=iIulBulltgU6a56xZRHN4H3l9WmuAYTsLGpBGhQ2"
    },
    "id": "3760527",
    "neo_reference_id": "3760527",
    "name": "(2016 TL11)",
    "designation": "2016 TL11",
    "nasa_jpl_url": "http://ssd.jpl.nasa.gov/sbdb.cgi?sstr=3760527",
    "absolute_magnitude_h": 22.7,
    "estimated_diameter": {
        "kilometers": {
            "estimated_diameter_min": 0.0766575574,
            "estimated_diameter_max": 0.1714115092
        },
        "meters": {
            "estimated_diameter_min": 76.6575573531,
            "estimated_diameter_max": 171.4115092306
        },
        "miles": {
            "estimated_diameter_min": 0.0476327831,
            "estimated_diameter_max": 0.1065101409
        },
        "feet": {
            "estimated_diameter_min": 251.5011804664,
            "estimated_diameter_max": 562.3737359442
        }
    },
    "is_potentially_hazardous_asteroid": false,
    "close_approach_data": [
        {
            "close_approach_date": "2016-09-19",
            "close_approach_date_full": "2016-Sep-19 10:21",
            "epoch_date_close_approach": 1474280460000,
            "relative_velocity": {
                "kilometers_per_second": "2.815206144",
                "kilometers_per_hour": "10134.7421182869",
                "miles_per_hour": "6297.3346234433"
            },
            "miss_distance": {
                "astronomical": "0.2816503474",
                "lunar": "109.5619851386",
                "kilometers": "42134292.055800038",
                "miles": "26181035.0527470044"
            },
            "orbiting_body": "Earth"
        }
    ],
    "orbital_data": {
        "orbit_id": "6",
        "orbit_determination_date": "2017-04-06 08:23:18",
        "first_observation_date": "2016-09-26",
        "last_observation_date": "2016-10-28",
        "data_arc_in_days": 32,
        "observations_used": 35,
        "orbit_uncertainty": "6",
        "minimum_orbit_intersection": ".275477",
        "jupiter_tisserand_invariant": "3.399",
        "epoch_osculation": "2459000.5",
        "eccentricity": ".4581995721445313",
        "semi_major_axis": "2.361303991380074",
        "inclination": "3.242200850228814",
        "ascending_node_longitude": "159.9934313375339",
        "orbital_period": "1325.336866251458",
        "perihelion_distance": "1.27935551282655",
        "perihelion_argument": "196.1421000244299",
        "aphelion_distance": "3.443252469933597",
        "perihelion_time": "2458970.717791401447",
        "mean_anomaly": "8.089713165381022",
        "mean_motion": ".2716290545951633",
        "equinox": "J2000",
        "orbit_class": {
            "orbit_class_type": "AMO",
            "orbit_class_description": "Near-Earth asteroid orbits similar to that of 1221 Amor",
            "orbit_class_range": "1.017 AU < q (perihelion) < 1.3 AU"
        }
    },
    "is_sentry_object": false
}